0 TITAN 34B DEB
1 23647U 81038C   20325.47507240  .00000567  00000-0  38220-3 0  9999
2 23647  62.9173 113.8754 6908825 266.4817  19.1245  2.72130291 16863
0 TITAN 34B DEB
1 23647U 81038C   20330.61953590  .00001104  00000-0  53512-3 0  9993
2 23647  62.9174 112.6832 6910863 266.5247  19.0948  2.72137979 17007
0 TITAN 34B DEB
1 23647U 81038C   20336.13126936  .00001255  00000-0  60119-3 0  9990
2 23647  62.9177 111.4038 6912957 266.5705  19.0599  2.72148809 17152
0 TITAN 34B DEB
1 23647U 81038C   20336.49870981 +.00001253 +00000-0 +61717-3 0  9998
2 23647 062.9175 111.3172 6913014 266.5748 019.0574 02.72149587017180
0 TITAN 34B DEB
1 23647U 81038C   20337.23358816  .00001191  00000-0  61325-3 0  9995
2 23647  62.9170 111.1459 6913214 266.5820  19.0522  2.72150921 17204
0 TITAN 34B DEB
1 23647U 81038C   20337.96846266  .00001111  00000-0  59079-3 0  9991
2 23647  62.9176 110.9754 6913653 266.5860  19.0462  2.72152323 17229
0 TITAN 34B DEB
1 23647U 81038C   20339.07076699  .00000983  00000-0  53997-3 0  9999
2 23647  62.9169 110.7191 6914282 266.5939  19.0368  2.72154496 17251
0 TITAN 34B DEB
1 23647U 81038C   20339.07076699  .00000983  00000-0  53997-3 0  9999
2 23647  62.9169 110.7191 6914282 266.5939  19.0368  2.72154496 17239
0 TITAN 34B DEB
1 23647U 81038C   20341.64277947  .00000833  00000-0  39748-3 0  9996
2 23647  62.9169 110.1207 6915216 266.6157  19.0191  2.72159001 17323
0 TITAN 34B DEB
1 23647U 81038C   20341.64277947  .00000833  00000-0  39748-3 0  9996
2 23647  62.9169 110.1207 6915216 266.6157  19.0191  2.72159001 17301
0 TITAN 34B DEB
1 23647U 81038C   20342.37763342 +.00001118 +00000-0 +50947-3 0  9997
2 23647 062.9171 109.9487 6915545 266.6224 019.0135 02.72160397017342
0 TITAN 34B DEB
1 23647U 81038C   20343.47990490 +.00001273 +00000-0 +51409-3 0  9991
2 23647 062.9170 109.6912 6915864 266.6328 019.0064 02.72162460017377
0 TITAN 34B DEB
1 23647U 81038C   20343.47990509  .00001276  00000-0  51404-3 0  9990
2 23647  62.9171 109.6916 6915954 266.6324  19.0058  2.72162423 17370
0 TITAN 34B DEB
1 23647U 81038C   20343.47990509  .00001276  00000-0  51404-3 0  9990
2 23647  62.9171 109.6916 6915954 266.6324  19.0058  2.72162423 17358
0 TITAN 34B DEB
1 23647U 81038C   20349.35853853  .00000893  00000-0  40508-3 0  9990
2 23647  62.9157 108.3189 6918448 266.6846  18.9508  2.72173136 17531
0 TITAN 34B DEB
1 23647U 81038C   20349.35853853  .00000893  00000-0  40508-3 0  9990
2 23647  62.9157 108.3189 6918448 266.6846  18.9508  2.72173136 17519
0 TITAN 34B DEB
1 23647U 81038C   20352.29777174  .00000931  00000-0  45622-3 0  9993
2 23647  62.9169 107.6334 6919817 266.7101  18.9226  2.72178120 17618
0 TITAN 34B DEB
1 23647U 81038C   20352.29777174  .00000931  00000-0  45622-3 0  9993
2 23647  62.9169 107.6334 6919817 266.7101  18.9226  2.72178120 17595
0 TITAN 34B DEB
1 23647U 81038C   20354.50215334  .00001001  00000-0  44854-3 0  9999
2 23647  62.9170 107.1180 6920894 266.7281  18.9063  2.72182645 17672
0 TITAN 34B DEB
1 23647U 81038C   20354.50215334  .00001001  00000-0  44854-3 0  9999
2 23647  62.9170 107.1180 6920894 266.7281  18.9063  2.72182645 17650
0 TITAN 34B DEB
1 23647U 81038C   20355.23694288  .00001088  00000-0  47068-3 0  9994
2 23647  62.9171 106.9470 6921105 266.7347  18.9027  2.72184502 17697
0 TITAN 34B DEB
1 23647U 81038C   20356.33911794  .00001264  00000-0  52029-3 0  9999
2 23647  62.9174 106.6893 6921566 266.7450  18.8961  2.72187431 17726
0 TITAN 34B DEB
1 23647U 81038C   20357.44128396  .00001762  00000-0  71636-3 0  9998
2 23647  62.9174 106.4335 6921985 266.7548  18.8902  2.72190347 17756
0 TITAN 34B DEB
1 23647U 81038C   20357.44128396  .00001762  00000-0  71636-3 0  9998
2 23647  62.9174 106.4335 6921985 266.7548  18.8902  2.72190347 17734
0 TITAN 34B DEB
1 23647U 81038C   20360.38032341  .00001726  00000-0  66974-3 0  9998
2 23647  62.9177 105.7454 6922958 266.7812  18.8736  2.72198955 17835
0 TITAN 34B DEB
1 23647U 81038C   20360.38032341  .00001726  00000-0  66974-3 0  9998
2 23647  62.9177 105.7454 6922958 266.7812  18.8736  2.72198955 17813
0 TITAN 34B DEB
1 23647U 81038C   20361.48243886  .00001572  00000-0  60876-3 0  9992
2 23647  62.9177 105.4880 6923395 266.7907  18.8658  2.72202025 17866
0 TITAN 34B DEB
1 23647U 81038C   20362.21717422  .00001215  00000-0  46656-3 0  9990
2 23647  62.9177 105.3153 6923684 266.7974  18.8602  2.72204389 17889
0 TITAN 34B DEB
1 23647U 81038C   20362.95190396  .00001015  00000-0  39417-3 0  9991
2 23647  62.9178 105.1432 6923913 266.8040  18.8549  2.72206113 17908
0 TITAN 34B DEB
1 23647U 81038C   20362.95190396  .00001015  00000-0  39417-3 0  9991
2 23647  62.9178 105.1432 6923913 266.8040  18.8549  2.72206113 17885
0 TITAN 34B DEB
1 23647U 81038C   20363.68663023  .00001502  00000-0  60382-3 0  9990
2 23647  62.9178 104.9710 6924212 266.8101  18.8491  2.72208140 17925
0 TITAN 34B DEB
1 23647U 81038C   20364.42135028  .00001910  00000-0  77595-3 0  9999
2 23647  62.9177 104.7988 6924431 266.8166  18.8438  2.72210662 17948
0 TITAN 34B DEB
1 23647U 81038C   20364.78870734  .00001840  00000-0  74829-3 0  9997
2 23647  62.9178 104.7129 6924554 266.8195  18.8411  2.72211809 17950
0 TITAN 34B DEB
1 23647U 81038C   20365.15606192  .00001526  00000-0  62089-3 0  9990
2 23647  62.9177 104.6267 6924711 266.8226  18.8382  2.72212948 17964
0 TITAN 34B DEB
1 23647U 81038C   20365.15606192  .00001526  00000-0  62089-3 0  9990
2 23647  62.9177 104.6267 6924711 266.8226  18.8382  2.72212948 17942
0 TITAN 34B DEB
1 23647U 81038C   20365.89076738  .00001180  00000-0  47944-3 0  9997
2 23647  62.9176 104.4541 6924969 266.8289  18.8327  2.72215073 17983
0 TITAN 34B DEB
1 23647U 81038C   20365.89076738  .00001180  00000-0  47944-3 0  9997
2 23647  62.9176 104.4541 6924969 266.8289  18.8327  2.72215073 17961
0 TITAN 34B DEB
1 23647U 81038C   21006.13554423  .00002317  00000-0  76011-3 0  9999
2 23647  62.9173 102.9853 6927327 266.8849  18.7891  2.72234219 18150
0 TITAN 34B DEB
1 23647U 81038C   21006.13554423  .00002317  00000-0  76011-3 0  9999
2 23647  62.9173 102.9853 6927327 266.8849  18.7891  2.72234219 18138
0 TITAN 34B DEB
1 23647U 81038C   21007.60483954  .00001572  00000-0  48742-3 0  9994
2 23647  62.9178 102.6396 6928058 266.8989  18.7748  2.72237933 18192
0 TITAN 34B DEB
1 23647U 81038C   21007.60483954  .00001572  00000-0  48742-3 0  9994
2 23647  62.9178 102.6396 6928058 266.8989  18.7748  2.72237933 18170
0 TITAN 34B DEB
1 23647U 81038C   21008.33947761  .00002240  00000-0  72789-3 0  9997
2 23647  62.9178 102.4672 6928357 266.9057  18.7675  2.72240541 18217
0 TITAN 34B DEB
1 23647U 81038C   21009.44141902  .00001820  00000-0  59828-3 0  9995
2 23647  62.9180 102.2073 6928775 266.9159  18.7562  2.72244293 18246
0 TITAN 34B DEB
1 23647U 81038C   21009.44141902  .00001820  00000-0  59828-3 0  9995
2 23647  62.9180 102.2073 6928775 266.9159  18.7562  2.72244293 18224
0 TITAN 34B DEB
1 23647U 81038C   21013.48175524  .00001482  00000-0  51286-3 0  9995
2 23647  62.9186 101.2559 6930297 266.9528  18.7176  2.72257457 18351
0 TITAN 34B DEB
1 23647U 81038C   21013.48175524  .00001482  00000-0  51286-3 0  9995
2 23647  62.9186 101.2559 6930297 266.9528  18.7176  2.72257457 18339
0 TITAN 34B DEB
1 23647U 81038C   21014.21634254  .00001238  00000-0  42666-3 0  9998
2 23647  62.9188 101.0829 6930596 266.9601  18.7117  2.72259472 18371
0 TITAN 34B DEB
1 23647U 81038C   21015.31821019  .00001883  00000-0  60918-3 0  9993
2 23647  62.9189 100.8231 6931042 266.9703  18.7045  2.72263943 18408
0 TITAN 34B DEB
1 23647U 81038C   21016.42006009  .00001890  00000-0  58799-3 0  9992
2 23647  62.9190 100.5637 6931385 266.9793  18.6996  2.72268252 18431
0 TITAN 34B DEB
1 23647U 81038C   21016.42006009  .00001890  00000-0  58799-3 0  9992
2 23647  62.9190 100.5637 6931385 266.9793  18.6996  2.72268252 18419
0 TITAN 34B DEB
1 23647U 81038C   21017.15461642  .00001616  00000-0  48812-3 0  9992
2 23647  62.9192 100.3904 6931634 266.9856  18.6963  2.72271187 18452
0 TITAN 34B DEB
1 23647U 81038C   21018.25644323  .00001755  00000-0  51016-3 0  9997
2 23647  62.9195 100.1301 6931947 266.9961  18.6916  2.72274537 18481
0 TITAN 34B DEB
1 23647U 81038C   21018.62371838  .00002011  00000-0  57915-3 0  9996
2 23647  62.9196 100.0441 6932122 267.0001  18.6892  2.72275805 18492
0 TITAN 34B DEB
1 23647U 81038C   21018.62371838  .00002011  00000-0  57915-3 0  9996
2 23647  62.9196 100.0441 6932122 267.0001  18.6892  2.72275805 18470
0 TITAN 34B DEB
1 23647U 81038C   21023.39804063  .00002431  00000-0  68315-3 0  9999
2 23647  62.9201  98.9160 6933444 267.0447  18.6629  2.72297986 18621
0 TITAN 34B DEB
1 23647U 81038C   21023.39804063  .00002431  00000-0  68315-3 0  9999
2 23647  62.9201  98.9160 6933444 267.0447  18.6629  2.72297986 18609
0 TITAN 34B DEB
1 23647U 81038C   21024.13251419  .00001892  00000-0  53810-3 0  9997
2 23647  62.9202  98.7424 6933610 267.0514  18.6582  2.72302011 18649
0 TITAN 34B DEB
1 23647U 81038C   21025.23420434  .00002792  00000-0  79148-3 0  9996
2 23647  62.9206  98.4814 6933879 267.0603  18.6513  2.72307890 18676
0 TITAN 34B DEB
1 23647U 81038C   21025.23420434  .00002792  00000-0  79148-3 0  9996
2 23647  62.9206  98.4814 6933879 267.0603  18.6513  2.72307890 18654
0 TITAN 34B DEB
1 23647U 81038C   21027.43750126  .00002965  00000-0  81804-3 0  9998
2 23647  62.9209  97.9609 6934615 267.0800  18.6355  2.72324471 18738
0 TITAN 34B DEB
1 23647U 81038C   21027.43750126  .00002965  00000-0  81804-3 0  9998
2 23647  62.9209  97.9609 6934615 267.0800  18.6355  2.72324471 18716
0 TITAN 34B DEB
1 23647U 81038C   21028.17190639  .00002800  00000-0  76127-3 0  9997
2 23647  62.9209  97.7865 6934846 267.0867  18.6309  2.72328359 18759
0 TITAN 34B DEB
1 23647U 81038C   21029.27349363  .00003639  00000-0  94999-3 0  9997
2 23647  62.9209  97.5252 6935229 267.0966  18.6242  2.72334741 18784
0 TITAN 34B DEB
1 23647U 81038C   21029.64068249  .00004011  00000-0  10337-2 0  9997
2 23647  62.9210  97.4373 6935346 267.1001  18.6222  2.72337976 18792
